ONEWEB-0258             
1 48976U 21060K   25088.90211580  .00000035  00000+0  57205-4 0  9992
2 48976  87.9063 317.3644 0001704  82.2843 277.8482 13.16593134182416
ONEWEB-0259             
1 48977U 21060L   25088.89579351  .00000023  00000+0  26978-4 0  9994
2 48977  87.9063 317.3499 0001652  78.4134 281.7182 13.16594416182456
ONEWEB-0260             
1 48978U 21060M   25088.35510372 -.00000014  00000+0 -70471-4 0  9993
2 48978  87.9066 317.4874 0002280  87.6815 272.4577 13.16593982181073
ONEWEB-0261             
1 48979U 21060N   25088.85699754  .00000105  00000+0  24093-3 0  9998
2 48979  87.9068 317.3885 0002062  72.7094 287.4262 13.16594413182493
ONEWEB-0262             
1 48980U 21060P   25088.91320425  .00000084  00000+0  18696-3 0  9991
2 48980  87.9063 317.3336 0001492  75.0239 285.1057 13.16594010182461
ONEWEB-0263             
1 48981U 21060Q   25088.86887305  .00000020  00000+0  19447-4 0  9997
2 48981  87.9068 317.3673 0001815  68.8133 291.3192 13.16593499182428
ONEWEB-0264             
1 48982U 21060R   25088.90607349  .00000011  00000+0 -37354-5 0  9990
2 48982  87.9061 317.3689 0001754  80.2368 279.8961 13.16593455182426
ONEWEB-0266             
1 48984U 21060T   25088.31948257  .00000094  00000+0  21177-3 0  9997
2 48984  87.9063 317.4563 0001557  82.3953 277.7355 13.16593253181043
